{"type": "FeatureCollection", "features": [ {"type": "Feature", "properties": {"norad_id": 41774, "name": "SKYSAT-C3", "group": "resource", "lat": -25.831775905536098, "lon": 27.908686466263006, "alt_km": 439.29620177929246, "timestamp": "2025-12-16T23:36:35.842370+00:00", "meta": {"OBJECT_NAME": "SKYSAT-C3", "OBJECT_ID": "2016-058E", "EPOCH": "2025-12-16T01:57:14.095296", "MEAN_MOTION": 15.4451798, "ECCENTRICITY": 0.00017972, "INCLINATION": 96.9302, "RA_OF_ASC_NODE": 23.6723, "ARG_OF_PERICENTER": 107.5702, "MEAN_ANOMALY": 252.5744, "EPHEMERIS_TYPE": 0, "CLASSIFICATION_TYPE": "U", "NORAD_CAT_ID": 41774, "ELEMENT_SET_NO": 999, "REV_AT_EPOCH": 51777, "BSTAR": 0.00030905894, "MEAN_MOTION_DOT": 0.00014261, "MEAN_MOTION_DDOT": 0}, "tle": {"line1": "1 41774U 16058E   25350.08141314  .00014261  00000+0  30906-3 0  9994", "line2": "2 41774  96.9302  23.6723 0001797 107.5702 252.5744 15.44517980517773"}}, "geometry": {"type": "Point", "coordinates": [27.908686466263006, -25.831775905536098]}}, {"type": "Feature", "properties": {"norad_id": 41785, "name": "ALSAT 1B", "group": "resource", "lat": 11.303650623977743, "lon": -175.84256961019946, "alt_km": 654.2155577104495, "timestamp": "2025-12-16T23:36:35.842381+00:00", "meta": {"OBJECT_NAME": "ALSAT 1B", "OBJECT_ID": "2016-059C", "EPOCH": "2025-12-16T08:09:58.164192", "MEAN_MOTION": 14.72080124, "ECCENTRICITY": 0.00107737, "INCLINATION": 97.7818, "RA_OF_ASC_NODE": 1.9753, "ARG_OF_PERICENTER": 93.0198, "MEAN_ANOMALY": 267.2243, "EPHEMERIS_TYPE": 0, "CLASSIFICATION_TYPE": "U", "NORAD_CAT_ID": 41785, "ELEMENT_SET_NO": 999, "REV_AT_EPOCH": 49367, "BSTAR": 8.8859802e-05, "MEAN_MOTION_DOT": 5.12e-06, "MEAN_MOTION_DDOT": 0}, "tle": {"line1": "1 41785U 16059C   25350.34025653  .00000512  00000+0  88860-4 0  9990", "line2": "2 41785  97.7818   1.9753 0010773  93.0198 267.2243 14.72080124493674"}}, "geometry": {"type": "Point", "coordinates": [-175.84256961019946, 11.303650623977743]}}, {"type": "Feature", "properties": {"norad_id": 41787, "name": "PATHFINDER 1", "group": "resource", "lat": 5.067852377676794, "lon": 174.25818017553857, "alt_km": 677.8922065697634, "timestamp": "2025-12-16T23:36:35.842391+00:00", "meta": {"OBJECT_NAME": "PATHFINDER 1", "OBJECT_ID": "2016-059E", "EPOCH": "2025-12-16T06:27:10.171008", "MEAN_MOTION": 14.67327463, "ECCENTRICITY": 0.00299728, "INCLINATION": 97.8137, "RA_OF_ASC_NODE": 352.8787, "ARG_OF_PERICENTER": 70.4886, "MEAN_ANOMALY": 289.9552, "EPHEMERIS_TYPE": 0, "CLASSIFICATION_TYPE": "U", "NORAD_CAT_ID": 41787, "ELEMENT_SET_NO": 999, "REV_AT_EPOCH": 49288, "BSTAR": 0.00014556755, "MEAN_MOTION_DOT": 7.81e-06, "MEAN_MOTION_DDOT": 0}, "tle": {"line1": "1 41787U 16059E   25350.26886772  .00000781  00000+0  14557-3 0  9999", "line2": "2 41787  97.8137 352.8787 0029972  70.4886 289.9552 14.67327463492880"}}, "geometry": {"type": "Point", "coordinates": [174.25818017553857, 5.067852377676794]}}, {"type": "Feature", "properties": {"norad_id": 41790, "name": "SCATSAT 1", "group": "resource", "lat": -16.023727186561203, "lon": 50.064627860722226, "alt_km": 663.0789092903451, "timestamp": "2025-12-16T23:36:35.842401+00:00", "meta": {"OBJECT_NAME": "SCATSAT 1", "OBJECT_ID": "2016-059H", "EPOCH": "2025-12-16T04:11:53.933856", "MEAN_MOTION": 14.78948032, "ECCENTRICITY": 0.00563658, "INCLINATION": 98.1461, "RA_OF_ASC_NODE": 46.8881, "ARG_OF_PERICENTER": 117.145, "MEAN_ANOMALY": 243.5524, "EPHEMERIS_TYPE": 0, "CLASSIFICATION_TYPE": "U", "NORAD_CAT_ID": 41790, "ELEMENT_SET_NO": 999, "REV_AT_EPOCH": 7453, "BSTAR": 0.00020042299, "MEAN_MOTION_DOT": 1.462e-05, "MEAN_MOTION_DDOT": 0}, "tle": {"line1": "1 41790U 16059H   25350.17492979  .00001462  00000+0  20042-3 0  9998", "line2": "2 41790  98.1461  46.8881 0056365 117.1450 243.5524 14.78948032 74531"}}, "geometry": {"type": "Point", "coordinates": [50.064627860722226, -16.023727186561203]}}, {"type": "Feature", "properties": {"norad_id": 41875, "name": "GOKTURK 1A", "group": "resource", "lat": -2.5345327877871315, "lon": 62.92907951157334, "alt_km": 687.744244771694, "timestamp": "2025-12-16T23:36:35.842411+00:00", "meta": {"OBJECT_NAME": "GOKTURK 1A", "OBJECT_ID": "2016-073A", "EPOCH": "2025-12-16T08:00:12.607200", "MEAN_MOTION": 14.62783908, "ECCENTRICITY": 0.0001268, "INCLINATION": 98.1429, "RA_OF_ASC_NODE": 242.6508, "ARG_OF_PERICENTER": 79.5089, "MEAN_ANOMALY": 280.6255, "EPHEMERIS_TYPE": 0, "CLASSIFICATION_TYPE": "U", "NORAD_CAT_ID": 41875, "ELEMENT_SET_NO": 999, "REV_AT_EPOCH": 48209, "BSTAR": 8.0923828e-05, "MEAN_MOTION_DOT": 3.66e-06, "MEAN_MOTION_DDOT": 0}, "tle": {"line1": "1 41875U 16073A   25350.33347925  .00000366  00000+0  80924-4 0  9994", "line2": "2 41875  98.1429 242.6508 0001268  79.5089 280.6255 14.62783908482091"}}, "geometry": {"type": "Point", "coordinates": [62.92907951157334, -2.5345327877871315]}}, {"type": "Feature", "properties": {"norad_id": 41877, "name": "RESOURCESAT-2A", "group": "resource", "lat": -36.387906457317506, "lon": 67.35115530646138, "alt_km": 826.1908763747206, "timestamp": "2025-12-16T23:36:35.842422+00:00", "meta": {"OBJECT_NAME": "RESOURCESAT-2A", "OBJECT_ID": "2016-074A", "EPOCH": "2025-12-16T08:34:49.588032", "MEAN_MOTION": 14.21600448, "ECCENTRICITY": 0.00012375, "INCLINATION": 98.7755, "RA_OF_ASC_NODE": 60.1923, "ARG_OF_PERICENTER": 237.1912, "MEAN_ANOMALY": 122.9146, "EPHEMERIS_TYPE": 0, "CLASSIFICATION_TYPE": "U", "NORAD_CAT_ID": 41877, "ELEMENT_SET_NO": 999, "REV_AT_EPOCH": 46832, "BSTAR": -3.9178733e-05, "MEAN_MOTION_DOT": -1.3e-06, "MEAN_MOTION_DDOT": 0}, "tle": {"line1": "1 41877U 16074A   25350.35751838 -.00000130  00000+0 -39179-4 0  9998", "line2": "2 41877  98.7755  60.1923 0001237 237.1912 122.9146 14.21600448468327"}}, "geometry": {"type": "Point", "coordinates": [67.35115530646138, -36.387906457317506]}}, {"type": "Feature", "properties": {"norad_id": 41948, "name": "CARTOSAT-2D", "group": "resource", "lat": 19.07282164349071, "lon": 45.82822672066708, "alt_km": 510.4799963462374, "timestamp": "2025-12-16T23:36:35.842433+00:00", "meta": {"OBJECT_NAME": "CARTOSAT-2D", "OBJECT_ID": "2017-008A", "EPOCH": "2025-12-16T07:43:06.934656", "MEAN_MOTION": 15.19295425, "ECCENTRICITY": 0.00049914, "INCLINATION": 97.4388, "RA_OF_ASC_NODE": 47.7653, "ARG_OF_PERICENTER": 151.9807, "MEAN_ANOMALY": 208.1697, "EPHEMERIS_TYPE": 0, "CLASSIFICATION_TYPE": "U", "NORAD_CAT_ID": 41948, "ELEMENT_SET_NO": 999, "REV_AT_EPOCH": 48981, "BSTAR": 0.0001853846, "MEAN_MOTION_DOT": 3.845e-05, "MEAN_MOTION_DDOT": 0}, "tle": {"line1": "1 41948U 17008A   25350.32160804  .00003845  00000+0  18538-3 0  9998", "line2": "2 41948  97.4388  47.7653 0004991 151.9807 208.1697 15.19295425489819"}}, "geometry": {"type": "Point", "coordinates": [45.82822672066708, 19.07282164349071]}}, {"type": "Feature", "properties": {"norad_id": 42063, "name": "SENTINEL-2B", "group": "resource", "lat": 70.38069439035483, "lon": 38.3389721065057, "alt_km": 781.3847000686992, "timestamp": "2025-12-16T23:36:35.842442+00:00", "meta": {"OBJECT_NAME": "SENTINEL-2B", "OBJECT_ID": "2017-013A", "EPOCH": "2025-12-16T08:10:06.572640", "MEAN_MOTION": 14.30817358, "ECCENTRICITY": 0.00011502, "INCLINATION": 98.5714, "RA_OF_ASC_NODE": 62.7356, "ARG_OF_PERICENTER": 93.1335, "MEAN_ANOMALY": 266.9979, "EPHEMERIS_TYPE": 0, "CLASSIFICATION_TYPE": "U", "NORAD_CAT_ID": 42063, "ELEMENT_SET_NO": 999, "REV_AT_EPOCH": 45849, "BSTAR": 2.8641791e-05, "MEAN_MOTION_DOT": 3.1e-07, "MEAN_MOTION_DDOT": 0}, "tle": {"line1": "1 42063U 17013A   25350.34035385  .00000031  00000+0  28642-4 0  9992", "line2": "2 42063  98.5714  62.7356 0001150  93.1335 266.9979 14.30817358458499"}}, "geometry": {"type": "Point", "coordinates": [38.3389721065057, 70.38069439035483]}}, {"type": "Feature", "properties": {"norad_id": 42767, "name": "CARTOSAT-2E", "group": "resource", "lat": -69.36705011745845, "lon": 68.86822865704887, "alt_km": 514.9683252734148, "timestamp": "2025-12-16T23:36:35.842453+00:00", "meta": {"OBJECT_NAME": "CARTOSAT-2E", "OBJECT_ID": "2017-036C", "EPOCH": "2025-12-16T08:06:48.062592", "MEAN_MOTION": 15.19236639, "ECCENTRICITY": 0.00021102, "INCLINATION": 97.4558, "RA_OF_ASC_NODE": 47.8779, "ARG_OF_PERICENTER": 219.9345, "MEAN_ANOMALY": 140.1735, "EPHEMERIS_TYPE": 0, "CLASSIFICATION_TYPE": "U", "NORAD_CAT_ID": 42767, "ELEMENT_SET_NO": 999, "REV_AT_EPOCH": 47038, "BSTAR": 0.00019573771, "MEAN_MOTION_DOT": 4.056e-05, "MEAN_MOTION_DDOT": 0}, "tle": {"line1": "1 42767U 17036C   25350.33805628  .00004056  00000+0  19574-3 0  9996", "line2": "2 42767  97.4558  47.8779 0002110 219.9345 140.1735 15.19236639470383"}}, "geometry": {"type": "Point", "coordinates": [68.86822865704887, -69.36705011745845]}}, {"type": "Feature", "properties": {"norad_id": 42920, "name": "FORMOSAT-5", "group": "resource", "lat": 22.106011691265742, "lon": 61.842037818856156, "alt_km": 723.4338839246648, "timestamp": "2025-12-16T23:36:35.842464+00:00", "meta": {"OBJECT_NAME": "FORMOSAT-5", "OBJECT_ID": "2017-049A", "EPOCH": "2025-12-16T06:57:26.355168", "MEAN_MOTION": 14.51007561, "ECCENTRICITY": 0.00097961, "INCLINATION": 98.2451, "RA_OF_ASC_NODE": 64.5385, "ARG_OF_PERICENTER": 283.2761, "MEAN_ANOMALY": 76.7341, "EPHEMERIS_TYPE": 0, "CLASSIFICATION_TYPE": "U", "NORAD_CAT_ID": 42920, "ELEMENT_SET_NO": 999, "REV_AT_EPOCH": 44015, "BSTAR": 6.1894334e-05, "MEAN_MOTION_DOT": 2.01e-06, "MEAN_MOTION_DDOT": 0}, "tle": {"line1": "1 42920U 17049A   25350.28988837  .00000201  00000+0  61894-4 0  9990", "line2": "2 42920  98.2451  64.5385 0009796 283.2761  76.7341 14.51007561440151"}}, "geometry": {"type": "Point", "coordinates": [61.842037818856156, 22.106011691265742]}}]}